      2.10          N: GNSS NAV DATA                        RINEX VERSION / TYPE
fic2rin                                 03/31/2020 00:18:22 PGM / RUN BY / DATE
                                                            END OF HEADER
 8 20  3 30 18  0  0.0-2.893991768360e-05-1.250555214938e-12 0.000000000000e+00
    2.900000000000e+01-3.628125000000e+01 4.473043463072e-09 9.209191638197e-01
   -1.836568117142e-06 5.317193688825e-03 3.548339009285e-06 5.153646900177e+03
    1.512000000000e+05 6.891787052155e-08 3.007778844919e+00 5.960464477539e-08
    9.701088391899e-01 3.099687500000e+02-1.248912928294e-01-8.288559537489e-09
   -2.632252501025e-10 1.000000000000e+00 2.099000000000e+03 0.000000000000e+00
    2.400000000000e+00 0.000000000000e+00 5.122274160385e-09 2.900000000000e+01
    1.440000000000e+05 4.000000000000e+00
 4 20  3 30 18  0  0.0-6.944406777620e-05-5.229594535194e-12 0.000000000000e+00
    2.000000000000e+02-8.125000000000e+00 4.667337270474e-09-2.330280101863e-01
   -3.669410943985e-07 6.492165848613e-04 7.610768079758e-06 5.153699090958e+03
    1.512000000000e+05 1.862645149231e-08-8.673993416357e-02 0.000000000000e+00
    9.603509386085e-01 2.325000000000e+02-2.644513102974e+00-8.021048394576e-09
   -7.714607058635e-11 1.000000000000e+00 2.099000000000e+03 0.000000000000e+00
    2.400000000000e+00 0.000000000000e+00-4.190951585770e-09 2.000000000000e+02
    1.440000000000e+05 4.000000000000e+00
31 20  3 30 18  0  0.0-3.280863165855e-05-2.501110429876e-12 0.000000000000e+00
    1.600000000000e+01 6.709375000000e+01 4.532331646948e-09-2.552376194839e+00
    3.317371010780e-06 9.531769319437e-03 9.806826710701e-06 5.153555128098e+03
    1.512000000000e+05-1.769512891769e-07 9.552378833892e-01-1.881271600723e-07
    9.580029799609e-01 1.919375000000e+02 1.250256091899e-01-7.868899199808e-09
   -1.396486740707e-10 1.000000000000e+00 2.099000000000e+03 0.000000000000e+00
    2.400000000000e+00 0.000000000000e+00-1.350417733192e-08 1.600000000000e+01
    1.440000000000e+05 4.000000000000e+00
29 20  3 30 18  0  0.0-6.918003782630e-05-9.208633855451e-12 0.000000000000e+00
    3.600000000000e+01-5.175000000000e+01 3.986237471362e-09 1.137562447631e+00
   -2.890825271606e-06 1.253301510587e-03 5.105510354042e-06 5.153609384537e+03
    1.512000000000e+05-4.656612873077e-08 3.091248675875e+00-5.215406417847e-08
    9.859809064052e-01 2.932187500000e+02 1.870600986748e+00-7.957117160155e-09
   -2.482246252663e-10 1.000000000000e+00 2.099000000000e+03 0.000000000000e+00
    2.400000000000e+00 0.000000000000e+00-1.024454832077e-08 3.600000000000e+01
    1.440000000000e+05 4.000000000000e+00
32 20  3 30 18  0  0.0 2.484712749720e-04 8.753886504564e-12 0.000000000000e+00
    2.900000000000e+01-8.843750000000e+00 4.763769858707e-09 1.481881485489e+00
   -4.991888999939e-07 3.780614701100e-03 7.634982466698e-06 5.153694309235e+03
    1.512000000000e+05-6.332993507385e-08-1.260527459171e-01 6.519258022308e-08
    9.571864595495e-01 2.265937500000e+02-2.483862470293e+00-8.102837515707e-09
   -1.392915163365e-10 1.000000000000e+00 2.099000000000e+03 0.000000000000e+00
    2.400000000000e+00 0.000000000000e+00 4.656612873077e-10 2.900000000000e+01
    1.440000000000e+05 4.000000000000e+00
16 20  3 30 18  0  0.0-1.409370452166e-04-4.320099833421e-12 0.000000000000e+00
    9.000000000000e+01 7.653125000000e+01 4.385539818194e-09 1.641454945256e+00
    4.036352038383e-06 1.152206549887e-02 5.392357707024e-06 5.153738475800e+03
    1.512000000000e+05-1.993030309677e-07 2.064515646746e+00 1.359730958939e-07
    9.790384531099e-01 2.892500000000e+02 6.195809063631e-01-8.182840848166e-09
   -1.214336296267e-11 1.000000000000e+00 2.099000000000e+03 0.000000000000e+00
    2.400000000000e+00 0.000000000000e+00-1.071020960808e-08 9.000000000000e+01
    1.440000000000e+05 4.000000000000e+00
 9 20  3 30 18  0  0.0-1.875786110759e-04-7.958078640513e-12 0.000000000000e+00
    4.800000000000e+01-8.406250000000e+00 4.858416658269e-09 1.115651824702e+00
   -3.930181264877e-07 1.622020732611e-03 7.225200533867e-06 5.153756418228e+03
    1.512000000000e+05-4.656612873077e-08-1.341767659609e-01-1.490116119385e-08
    9.530387108249e-01 2.337500000000e+02 1.803051274014e+00-8.167125907862e-09
   -4.750197864808e-11 1.000000000000e+00 2.099000000000e+03 0.000000000000e+00
    2.400000000000e+00 0.000000000000e+00 1.396983861923e-09 4.800000000000e+01
    1.440000000000e+05 4.000000000000e+00
27 20  3 30 18  0  0.0-2.531684003770e-04-1.057287590811e-11 0.000000000000e+00
    7.800000000000e+01-3.803125000000e+01 4.324465845646e-09 7.505021266146e-01
   -1.762062311172e-06 8.122954401188e-03 3.946945071220e-06 5.153661556244e+03
    1.512000000000e+05-3.725290298462e-08 3.021595048488e+00 1.136213541031e-07
    9.785187031860e-01 3.098437500000e+02 5.278819476248e-01-8.251415133132e-09
   -3.021554431299e-10 1.000000000000e+00 2.099000000000e+03 0.000000000000e+00
    2.400000000000e+00 0.000000000000e+00 1.396983861923e-09 7.800000000000e+01
    1.440000000000e+05 4.000000000000e+00
24 20  3 30 18  0  0.0-1.103384420276e-05-5.684341886081e-13 0.000000000000e+00
    1.000000000000e+02 4.918750000000e+01 5.051638992469e-09-1.191056171356e+00
    2.598389983177e-06 9.595165378414e-03 8.907169103622e-06 5.153661190033e+03
    1.512000000000e+05 2.533197402954e-07 8.687227616986e-01 2.235174179077e-08
    9.368732685550e-01 1.936875000000e+02 6.674780745924e-01-8.196055684332e-09
   -8.357490980188e-11 1.000000000000e+00 2.099000000000e+03 0.000000000000e+00
    3.400000000000e+00 0.000000000000e+00 2.793967723846e-09 1.000000000000e+02
    1.440000000000e+05 4.000000000000e+00
22 20  3 30 18  0  0.0-7.852851413190e-04 2.273736754432e-13 0.000000000000e+00
    7.800000000000e+01-1.546875000000e+01 5.244504168935e-09-1.513040549241e-01
   -7.431954145432e-07 7.200278574601e-03 7.737427949905e-06 5.153533464432e+03
    1.512000000000e+05-1.378357410431e-07-1.249718459264e+00-9.313225746155e-08
    9.298504074304e-01 2.167812500000e+02-1.195579846140e+00-8.411778955786e-09
    3.382283742837e-10 1.000000000000e+00 2.099000000000e+03 0.000000000000e+00
    2.400000000000e+00 0.000000000000e+00-1.816079020500e-08 7.800000000000e+01
    1.440000000000e+05 4.000000000000e+00
19 20  3 30 18  0  0.0-1.787296496332e-04 5.115907697473e-12 0.000000000000e+00
    4.100000000000e+01-5.203125000000e+01 4.062669226480e-09-2.922907694975e+00
   -2.646818757057e-06 9.279528865591e-03 4.673376679420e-06 5.153683795929e+03
    1.512000000000e+05 1.993030309677e-07 3.125295684744e+00 6.891787052155e-08
    9.824879451837e-01 2.991875000000e+02 1.580454567545e+00-7.868899199808e-09
   -1.664355041354e-10 1.000000000000e+00 2.099000000000e+03 0.000000000000e+00
    2.400000000000e+00 0.000000000000e+00-1.536682248116e-08 4.100000000000e+01
    1.440000000000e+05 4.000000000000e+00
14 20  3 30 18  0  0.0-2.286862581968e-05 2.501110429876e-12 0.000000000000e+00
    9.700000000000e+01-3.593750000000e+00 4.722696719275e-09 5.041271248154e-01
   -2.887099981308e-07 1.118379423860e-02 7.962808012962e-06 5.153623186111e+03
    1.512000000000e+05-1.695007085800e-07-3.879706144762e-02 2.980232238770e-08
    9.608533295465e-01 2.267187500000e+02-1.924993934033e+00-8.194627053395e-09
   -2.171519023912e-10 1.000000000000e+00 2.099000000000e+03 0.000000000000e+00
    2.400000000000e+00 0.000000000000e+00-9.778887033463e-09 9.700000000000e+01
    1.440000000000e+05 4.000000000000e+00
25 20  3 30 18  0  0.0-6.196089088917e-06 2.160049916711e-12 0.000000000000e+00
    8.500000000000e+01 7.025000000000e+01 4.514830917973e-09-3.062855489894e+00
    3.539025783539e-06 9.245850727893e-03 4.714354872704e-06 5.153574247360e+03
    1.512000000000e+05 4.656612873077e-08 1.977407553156e+00-1.695007085800e-07
    9.660997868025e-01 2.891250000000e+02 9.173581666670e-01-8.058192798932e-09
    4.107313943255e-11 1.000000000000e+00 2.099000000000e+03 0.000000000000e+00
    2.400000000000e+00 0.000000000000e+00 5.587935447693e-09 8.500000000000e+01
    1.440000000000e+05 4.000000000000e+00
21 20  3 30 18  0  0.0-2.075871452689e-05 5.115907697473e-12 0.000000000000e+00
    8.700000000000e+01-7.018750000000e+01 4.265891977238e-09 3.052180306029e+00
   -3.544613718987e-06 2.478220418561e-02 8.910894393921e-06 5.153543647766e+03
    1.512000000000e+05 3.259629011154e-07-2.279120509283e+00 1.378357410431e-07
    9.523635551133e-01 1.967812500000e+02-1.344658068280e+00-7.597459321819e-09
    1.071473202588e-12 1.000000000000e+00 2.099000000000e+03 0.000000000000e+00
    2.400000000000e+00 0.000000000000e+00-1.024454832077e-08 8.700000000000e+01
    1.440000000000e+05 4.000000000000e+00
11 20  3 30 18  0  0.0-3.191973082721e-04 1.080024958355e-11 0.000000000000e+00
    6.900000000000e+01-7.659375000000e+01 5.478442484834e-09-1.883894542352e+00
   -3.805384039879e-06 1.587535522413e-02 6.224960088730e-06 5.153718820572e+03
    1.512000000000e+05-9.499490261078e-08-2.677239090966e+00 4.395842552185e-07
    9.124787262987e-01 2.322812500000e+02 1.970698346056e+00-8.575000040314e-09
   -2.017941198208e-10 1.000000000000e+00 2.099000000000e+03 0.000000000000e+00
    2.400000000000e+00 0.000000000000e+00-1.257285475731e-08 6.900000000000e+01
    1.440000000000e+05 4.000000000000e+00
12 20  3 30 18  0  0.0 1.348499208689e-04-4.320099833421e-12 0.000000000000e+00
    9.300000000000e+01 6.131250000000e+01 4.319108479633e-09-2.810190272436e+00
    3.270804882050e-06 8.097388083115e-03 4.390254616737e-06 5.153723114014e+03
    1.512000000000e+05 1.788139343262e-07 2.045643242806e+00-7.823109626770e-08
    9.787817899846e-01 3.029062500000e+02 1.128892087664e+00-7.986761252093e-09
    5.857386840816e-11 1.000000000000e+00 2.099000000000e+03 0.000000000000e+00
    3.400000000000e+00 0.000000000000e+00-1.257285475731e-08 9.300000000000e+01
    1.440000000000e+05 4.000000000000e+00
